UNKNOWN                 
1 81617U 73086    23014.52360155  .00000297  00000+0  20492-2 0  9990
2 81617 101.2894 225.2295 0038470 186.3096 173.7500 12.56403421419524
UNKNOWN                 
1 81624U          23013.87722365  .00004718  00000+0  10982-2 0  9991
2 81624  66.9881 180.4498 0088631  29.7907 330.8208 14.53313299484274
UNKNOWN                 
1 81626U          23011.89724489  .00856625  00000+0  28553-1 0  9996
2 81626  70.9784  80.3575 0028077   2.7248 357.4081 15.28002156472747
UNKNOWN                 
1 81640U          23014.59496397  .00000944  00000+0  91633-3 0  9992
2 81640  65.8252 142.7635 0987510 148.8584 217.4997 12.55683258376511
UNKNOWN                 
1 81652U 76077    23004.87656431  .00000474  00000+0  62712-3 0  9993
2 81652 102.1766  21.3198 0379072 232.6433 252.4550 13.41847395999096
UNKNOWN                 
1 81661U          23011.52623443  .00018319  00000+0  44608-2 0  9993
2 81661  98.4288 294.7072 0060365 222.5086 137.1427 14.51666525380039
UNKNOWN                 
1 81667U          23012.81242501  .00002404  00000+0  79196-3 0  9993
2 81667  74.0434 213.2308 0017431  56.0700 304.2108 14.38610381303037
UNKNOWN                 
1 81674U          23009.17700160  .00001048  00000+0  68646-3 0  9997
2 81674  66.8237 165.4781 0033754 278.3010 257.5522 14.05789064463303
UNKNOWN                 
1 81678U          23013.19466248  .00050231  00000+0  52444-2 0  9990
2 81678  65.8305 348.6485 0048511 255.7108 117.0165 14.88541677489940
UNKNOWN                 
1 81683U          23014.58113342  .00005332  00000+0  15067-2 0  9996
2 81683  81.2243 324.6110 0028576 279.4603  80.3358 14.45328411481692
UNKNOWN                 
1 81693U 73086    23009.93897395  .00000869  00000+0  66067-2 0  9997
2 81693 101.0763 180.1407 0384865 292.1826  63.8823 12.23629802837049
UNKNOWN                 
1 81696U          23011.56078521  .00020612  00000+0  17132-2 0  9997
2 81696  97.4482 277.7693 0188631 206.0945 153.0672 14.85861946354222
UNKNOWN                 
1 81732U          23013.76274367  .00047047  00000+0  44204-2 0  9999
2 81732  65.7318 297.9137 0218679  55.9111 306.2543 14.77296133486493
UNKNOWN                 
1 81745U          23014.21596414  .00004107  00000+0  15641-2 0  9997
2 81745  71.0037 177.4970 0004020  61.7644 112.7437 14.31445796477102
UNKNOWN                 
1 81749U          23012.92863431  .00000470  00000+0  17431-2 0  9991
2 81749  99.6768 181.8589 0368923  18.0701 134.5980 12.77080924426051
UNKNOWN                 
1 81775U          23014.27802438  .00007174  00000+0  32225-2 0  9996
2 81775  82.9294  10.5787 0019815 259.3103 100.5848 14.22173033473230
UNKNOWN                 
1 81779U          23009.26894988 -.00012279  00000+0 -55677+0 0  9991
2 81779  54.2628 343.0387 1715928 213.1775 134.8886  9.25331547381120
UNKNOWN                 
1 81792U          23014.50855361  .00004499  00000+0  17399-2 0  9996
2 81792  65.8274 312.6589 0909079  33.2664 332.2260 13.05054928436090
UNKNOWN                 
1 81794U          23009.06807250  .00044913  00000+0  40284-2 0  9991
2 81794  81.1805 133.8174 0005922 249.7427 110.3154 14.95532073490427
UNKNOWN                 
1 81798U          23014.57850629  .00066086  00000+0  11863-1 0  9990
2 81798  74.0115 326.7703 0039876 295.0906  64.6126 14.65798086432294
UNKNOWN                 
1 81812U          23013.87996704  .00003594  00000+0  24424-1 0  9996
2 81812 103.5635 163.4719 0379475 237.9497 118.4169 12.30047651409385
UNKNOWN                 
1 81813U          23009.88709212  .00004432  00000+0  12530-2 0  9997
2 81813  99.0598 237.4450 0018641  61.6411 298.6656 14.46072136480768
UNKNOWN                 
1 81816U 77121    23013.37577981  .00001926  00000+0  15703-2 0  9993
2 81816  66.2397  58.7524 0179956 148.2137 212.9950 13.84688089461737
UNKNOWN                 
1 81817U          23014.39604213  .00030331  00000+0  27553-2 0  9996
2 81817  65.7270 261.5015 0278394 203.6795 155.1301 14.70011630488996
UNKNOWN                 
1 81818U          23007.45525103  .00007274  00000+0  16157-2 0  9994
2 81818  65.7535 267.9134 0655617  46.4058 318.9528 13.72777856500518
UNKNOWN                 
1 81819U          23014.16742504  .00001412  00000+0  10122-1 0  9990
2 81819 102.2061  86.6461 0032946 296.0492  63.7183 12.45742163415472
UNKNOWN                 
1 81824U          23013.56049880  .00005260  00000+0  24916-2 0  9998
2 81824  65.8511 322.5981 0049978 206.8359 153.0141 14.19721058472759
UNKNOWN                 
1 81833U          23014.14000252  .00000249  00000+0  88620-3 0  9998
2 81833  90.2602 339.0119 0025911 289.6450  70.1872 12.93136313315020
UNKNOWN                 
1 81838U          23013.95976944  .00006577  00000+0  21150-2 0  9995
2 81838  67.7677 123.8082 0042171 309.7876 164.9586 14.39320483479409
UNKNOWN                 
1 81844U          23013.87187204  .00005116  00000+0  24617-2 0  9995
2 81844  82.9218  61.2014 0082180 132.9422 227.8691 14.16871078471452
UNKNOWN                 
1 81845U          23012.88346223  .00003199  00000+0  43050-3 0  9996
2 81845  97.7533 230.9151 0102587 179.6371 192.8646 14.76281350491984
UNKNOWN                 
1 81864U          23013.29088606  .00000792  00000+0  35841-3 0  9996
2 81864  65.6764  22.7190 0779817 112.5790 255.9629 13.26667709409332
UNKNOWN                 
1 81865U 87062    23014.56691179  .00002483  00000+0  22042-2 0  9993
2 81865  82.8075 125.9530 0070942 135.9411 237.9621 13.83298898461326
UNKNOWN                 
1 81872U          23014.24678324  .00391948  00000+0  17992-1 0  9994
2 81872  61.9773 253.7228 1499054  18.3014 346.6396 12.41645978221109
UNKNOWN                 
1 81873U          23011.84730493  .00005090  00000+0  27830-2 0  9997
2 81873  99.0866  62.5411 0073368 214.7172 144.9198 14.11048009418699
UNKNOWN                 
1 81877U          23014.36707671  .00000738  00000+0  10590-2 0  9992
2 81877  65.9364  42.8004 0073968 242.9731 116.3762 13.60741962983257
UNKNOWN                 
1 81893U 70025    23014.50924403  .00001297  00000+0  14549-2 0  9993
2 81893  99.9605 297.8140 0015469 118.6810 241.5893 13.73041916457980
UNKNOWN                 
1 81899U          23012.98601538  .00000627  00000+0  16402-2 0  9992
2 81899 102.4330 274.8228 0186161 296.7576  61.4588 13.16693724438669
UNKNOWN                 
1 81902U          23013.30551337  .00033813  00000+0  40098-2 0  9996
2 81902  81.6358 227.0199 0249286 302.0659  55.6551 14.64589452482727
UNKNOWN                 
1 81905U          23012.94277802  .00387697  00000+0  84267-2 0  9998
2 81905  61.6553 262.2825 0694798 230.0007 123.8059 14.27240874543620
UNKNOWN                 
1 81921U          23002.14865956  .00000391  00000+0  18773-3 0  9993
2 81921  65.7093 321.3955 0887190 211.6049 142.8677 13.08150985887487
UNKNOWN                 
1 81946U 87079    23014.48872090  .00000107  00000+0  53039-3 0  9997
2 81946  66.4226  36.4293 0668770 145.7337   5.5685 12.42033195415804
UNKNOWN                 
1 81947U          23012.82067818  .00004756  00000+0  56280-3 0  9992
2 81947  66.0807 215.6008 0443037  67.2921 297.4371 14.34213567477353
UNKNOWN                 
1 81964U          23014.47179258  .00000365  00000+0  33029-3 0  9994
2 81964  66.5859  16.8175 0030113  63.3588 297.0570 13.94651951465715
UNKNOWN                 
1 81969U          23013.90662661  .00006262  00000+0  68218-3 0  9991
2 81969  86.6666 248.0624 0012037  42.6630 317.5528 14.87799730280953
UNKNOWN                 
1 81995U          23013.65143716  .00003367  00000+0  81973-3 0  9993
2 81995  65.7558 343.0629 0577051 103.3966 263.2068 13.84597002455921
UNKNOWN                 
1 82039U          23011.60612807  .00020077  00000+0  40353-2 0  9991
2 82039  99.0650  71.3851 0038130  73.8938 286.6452 14.61181154401629
UNKNOWN                 
1 82043U          23012.92223858  .00003205  00000+0  10088-2 0  9992
2 82043  97.9473 249.5714 0259041  23.3303 337.9388 14.23541986421916
UNKNOWN                 
1 82044U          23009.43035585  .00001384  00000+0  14787-2 0  9999
2 82044  99.9195  89.4990 0066981 155.7352 204.6974 13.74882817414986
UNKNOWN                 
1 82051U          23012.92952183  .00004705  00000+0  20822-2 0  9994
2 82051  98.8090  83.6690 0116487 119.6972 241.5859 14.20052417420529
UNKNOWN                 
1 82073U          23013.27187169  .00004088  00000+0  12372-2 0  9996
2 82073  97.6867 190.1036 0238461 268.5489  88.8370 14.27669757422658
UNKNOWN                 
1 82139U          23014.56767516  .00002932  00000+0  16997-2 0  9995
2 82139  99.1043  61.4323 0093993 150.7361 209.9119 14.07399072330162
UNKNOWN                 
1 82162U          23014.32847656  .00003976  00000+0  68671-2 0  9994
2 82162 100.3794 239.9194 0060189 276.6512  82.7768 13.44040112360989
UNKNOWN                 
1 82168U          23012.91130121  .00076050  00000+0  67165-2 0  9995
2 82168  74.0004  79.4703 0016253 354.5584   5.5421 14.95851314332278
UNKNOWN                 
1 82180U          23010.85685891  .00020569  00000+0  43393-2 0  9990
2 82180  65.6627 321.6729 0455591  30.8333 331.8670 14.10302265449292
UNKNOWN                 
1 82187U          23013.30073769  .00066106  00000+0  86981-2 0  9992
2 82187  70.9362  28.3296 0058951 327.4704  32.2823 14.78568879486966
UNKNOWN                 
1 82189U          23013.79768139  .00000410  00000+0  15660-3 0  9992
2 82189  74.0334 196.9080 0017697 285.2467  74.6728 14.33855632479855
UNKNOWN                 
1 82199U          23013.57581653  .00000640  00000+0  56002-3 0  9993
2 82199  82.9688 312.6526 0036476 174.2206   0.6405 13.83914350462403
UNKNOWN                 
1 82205U          23013.98083473  .00004089  00000+0  10011-2 0  9993
2 82205  63.0048   1.8638 0587010 186.7687 172.5172 13.82587563460328
UNKNOWN                 
1 82223U          23008.31611683  .00002191  00000+0  13739-2 0  9996
2 82223  99.3952 204.3700 0074140  66.3970 294.4958 14.04287815298302
